{
  "type": "FeatureCollection",
  "features": [
    {
      "type": "Feature",
      "properties": {
        "norad_id": 41890,
        "name": "CYGFM07",
        "group": "weather",
        "lat": 34.920304654475736,
        "lon": 147.9994360953881,
        "alt_km": 409.66735520572,
        "timestamp": "2025-12-06T22:38:42.377953+00:00",
        "meta_object_name": "CYGFM07",
        "meta_object_id": "2016-078G",
        "meta_epoch": "2025-12-06T14:31:58.960128",
        "meta_mean_motion": 15.49635518,
        "meta_eccentricity": 0.00092233,
        "meta_inclination": 34.9481,
        "meta_ra_of_asc_node": 61.6609,
        "meta_arg_of_pericenter": 160.7733,
        "meta_mean_anomaly": 199.3339,
        "meta_ephemeris_type": 0,
        "meta_classification_type": "U",
        "meta_norad_cat_id": 41890,
        "meta_element_set_no": 999,
        "meta_rev_at_epoch": 49900,
        "meta_bstar": 0.00058150134,
        "meta_mean_motion_dot": 0.00033332,
        "meta_mean_motion_ddot": 0,
        "tle_line1": "1 41890U 16078G   25340.60554352  .00033332  00000+0  58150-3 0  9993",
        "tle_line2": "2 41890  34.9481  61.6609 0009223 160.7733 199.3339 15.49635518499000"
      },
      "geometry": {
        "type": "Point",
        "coordinates": [
          147.9994360953881,
          34.920304654475736
        ]
      }
    },
    {
      "type": "Feature",
      "properties": {
        "norad_id": 41891,
        "name": "CYGFM03",
        "group": "weather",
        "lat": -33.43523834727352,
        "lon": -9.655105736431736,
        "alt_km": 424.13208598953315,
        "timestamp": "2025-12-06T22:38:42.377964+00:00",
        "meta_object_name": "CYGFM03",
        "meta_object_id": "2016-078H",
        "meta_epoch": "2025-12-06T13:41:14.602560",
        "meta_mean_motion": 15.49535042,
        "meta_eccentricity": 0.00084934,
        "meta_inclination": 34.9434,
        "meta_ra_of_asc_node": 63.8068,
        "meta_arg_of_pericenter": 146.9636,
        "meta_mean_anomaly": 213.1617,
        "meta_ephemeris_type": 0,
        "meta_classification_type": "U",
        "meta_norad_cat_id": 41891,
        "meta_element_set_no": 999,
        "meta_rev_at_epoch": 49897,
        "meta_bstar": 0.0005693164,
        "meta_mean_motion_dot": 0.00032505,
        "meta_mean_motion_ddot": 0,
        "tle_line1": "1 41891U 16078H   25340.57030790  .00032505  00000+0  56932-3 0  9992",
        "tle_line2": "2 41891  34.9434  63.8068 0008493 146.9636 213.1617 15.49535042498978"
      },
      "geometry": {
        "type": "Point",
        "coordinates": [
          -9.655105736431736,
          -33.43523834727352
        ]
      }
    },
    {
      "type": "Feature",
      "properties": {
        "norad_id": 43010,
        "name": "FENGYUN 3D",
        "group": "weather",
        "lat": -76.13842189648956,
        "lon": -12.934344160823068,
        "alt_km": 833.6264245022357,
        "timestamp": "2025-12-06T22:38:42.377974+00:00",
        "meta_object_name": "FENGYUN 3D",
        "meta_object_id": "2017-072A",
        "meta_epoch": "2025-12-06T14:33:40.849920",
        "meta_mean_motion": 14.19681187,
        "meta_eccentricity": 7.275e-05,
        "meta_inclination": 98.9886,
        "meta_ra_of_asc_node": 306.8254,
        "meta_arg_of_pericenter": 202.5017,
        "meta_mean_anomaly": 157.6127,
        "meta_ephemeris_type": 0,
        "meta_classification_type": "U",
        "meta_norad_cat_id": 43010,
        "meta_element_set_no": 999,
        "meta_rev_at_epoch": 41766,
        "meta_bstar": 0.00012580883,
        "meta_mean_motion_dot": 2.2e-06,
        "meta_mean_motion_ddot": 0,
        "tle_line1": "1 43010U 17072A   25340.60672280  .00000220  00000+0  12581-3 0  9993",
        "tle_line2": "2 43010  98.9886 306.8254 0000727 202.5017 157.6127 14.19681187417668"
      },
      "geometry": {
        "type": "Point",
        "coordinates": [
          -12.934344160823068,
          -76.13842189648956
        ]
      }
    },
    {
      "type": "Feature",
      "properties": {
        "norad_id": 43013,
        "name": "NOAA 20 (JPSS-1)",
        "group": "weather",
        "lat": 73.7986774900472,
        "lon": -114.74365499280087,
        "alt_km": 818.4422816283895,
        "timestamp": "2025-12-06T22:38:42.377985+00:00",
        "meta_object_name": "NOAA 20 (JPSS-1)",
        "meta_object_id": "2017-073A",
        "meta_epoch": "2025-12-06T13:49:43.261824",
        "meta_mean_motion": 14.19523173,
        "meta_eccentricity": 0.00021046,
        "meta_inclination": 98.759,
        "meta_ra_of_asc_node": 276.9407,
        "meta_arg_of_pericenter": 96.0107,
        "meta_mean_anomaly": 264.1309,
        "meta_ephemeris_type": 0,
        "meta_classification_type": "U",
        "meta_norad_cat_id": 43013,
        "meta_element_set_no": 999,
        "meta_rev_at_epoch": 41714,
        "meta_bstar": 0.00011357534,
        "meta_mean_motion_dot": 1.95e-06,
        "meta_mean_motion_ddot": 0,
        "tle_line1": "1 43013U 17073A   25340.57619516  .00000195  00000+0  11358-3 0  9998",
        "tle_line2": "2 43013  98.7590 276.9407 0002104  96.0107 264.1309 14.19523173417144"
      },
      "geometry": {
        "type": "Point",
        "coordinates": [
          -114.74365499280087,
          73.7986774900472
        ]
      }
    },
    {
      "type": "Feature",
      "properties": {
        "norad_id": 43226,
        "name": "GOES 17",
        "group": "weather",
        "lat": -0.3767438783767587,
        "lon": -33.824642052726546,
        "alt_km": 35777.5068167157,
        "timestamp": "2025-12-06T22:38:42.377997+00:00",
        "meta_object_name": "GOES 17",
        "meta_object_id": "2018-022A",
        "meta_epoch": "2025-12-06T11:01:48.078336",
        "meta_mean_motion": 1.00270924,
        "meta_eccentricity": 0.00035204,
        "meta_inclination": 0.4428,
        "meta_ra_of_asc_node": 89.2402,
        "meta_arg_of_pericenter": 183.7005,
        "meta_mean_anomaly": 238.5103,
        "meta_ephemeris_type": 0,
        "meta_classification_type": "U",
        "meta_norad_cat_id": 43226,
        "meta_element_set_no": 999,
        "meta_rev_at_epoch": 2849,
        "meta_bstar": 0,
        "meta_mean_motion_dot": -1.75e-06,
        "meta_mean_motion_ddot": 0,
        "tle_line1": "1 43226U 18022A   25340.45958424 -.00000175  00000+0  00000+0 0  9997",
        "tle_line2": "2 43226   0.4428  89.2402 0003520 183.7005 238.5103  1.00270924 28496"
      },
      "geometry": {
        "type": "Point",
        "coordinates": [
          -33.824642052726546,
          -0.3767438783767587
        ]
      }
    },
    {
      "type": "Feature",
      "properties": {
        "norad_id": 43491,
        "name": "FENGYUN 2H",
        "group": "weather",
        "lat": 2.051374224420722,
        "lon": 134.94928464643922,
        "alt_km": 35790.51422090454,
        "timestamp": "2025-12-06T22:38:42.378009+00:00",
        "meta_object_name": "FENGYUN 2H",
        "meta_object_id": "2018-050A",
        "meta_epoch": "2025-12-06T12:19:49.749600",
        "meta_mean_motion": 1.00271271,
        "meta_eccentricity": 0.00029244,
        "meta_inclination": 2.534,
        "meta_ra_of_asc_node": 81.3977,
        "meta_arg_of_pericenter": 164.9848,
        "meta_mean_anomaly": 93.489,
        "meta_ephemeris_type": 0,
        "meta_classification_type": "U",
        "meta_norad_cat_id": 43491,
        "meta_element_set_no": 999,
        "meta_rev_at_epoch": 2750,
        "meta_bstar": 0,
        "meta_mean_motion_dot": -1.24e-06,
        "meta_mean_motion_ddot": 0,
        "tle_line1": "1 43491U 18050A   25340.51377025 -.00000124  00000+0  00000+0 0  9995",
        "tle_line2": "2 43491   2.5340  81.3977 0002924 164.9848  93.4890  1.00271271 27507"
      },
      "geometry": {
        "type": "Point",
        "coordinates": [
          134.94928464643922,
          2.051374224420722
        ]
      }
    },
    {
      "type": "Feature",
      "properties": {
        "norad_id": 43689,
        "name": "METOP-C",
        "group": "weather",
        "lat": 3.5955390211908496,
        "lon": -140.64737931737452,
        "alt_km": 823.34019692732,
        "timestamp": "2025-12-06T22:38:42.378021+00:00",
        "meta_object_name": "METOP-C",
        "meta_object_id": "2018-087A",
        "meta_epoch": "2025-12-06T15:03:41.609088",
        "meta_mean_motion": 14.21508404,
        "meta_eccentricity": 0.00015908,
        "meta_inclination": 98.6938,
        "meta_ra_of_asc_node": 38.4906,
        "meta_arg_of_pericenter": 52.6105,
        "meta_mean_anomaly": 307.5217,
        "meta_ephemeris_type": 0,
        "meta_classification_type": "U",
        "meta_norad_cat_id": 43689,
        "meta_element_set_no": 999,
        "meta_rev_at_epoch": 36747,
        "meta_bstar": 0.00015448752,
        "meta_mean_motion_dot": 2.94e-06,
        "meta_mean_motion_ddot": 0,
        "tle_line1": "1 43689U 18087A   25340.62756492  .00000294  00000+0  15449-3 0  9999",
        "tle_line2": "2 43689  98.6938  38.4906 0001590  52.6105 307.5217 14.21508404367470"
      },
      "geometry": {
        "type": "Point",
        "coordinates": [
          -140.64737931737452,
          3.5955390211908496
        ]
      }
    }
  ]
}